{"fetched_at":"2026-07-21T07:06:55.004Z","source":"https://celestrak.org/NORAD/elements/gp.php?NAME=HULIANWANG&FORMAT=JSON","constellation":"guowang","records":[{"OBJECT_NAME":"HULIANWANG JISHU SHIYAN A","OBJECT_ID":"2023-095A","EPOCH":"2026-07-20T22:39:52.513056","CLASSIFICATION_TYPE":"U","MEAN_MOTION":13.39544544,"ECCENTRICITY":0.00195523,"INCLINATION":86.505,"RA_OF_ASC_NODE":353.0888,"ARG_OF_PERICENTER":96.7714,"MEAN_ANOMALY":263.5654,"EPHEMERIS_TYPE":0,"NORAD_CAT_ID":57288,"ELEMENT_SET_NO":999,"REV_AT_EPOCH":14827,"BSTAR":0.000048182968,"MEAN_MOTION_DOT":4.2e-7,"MEAN_MOTION_DDOT":0},{"OBJECT_NAME":"HULIANWANG JISHU SHIYAN B","OBJECT_ID":"2023-095B","EPOCH":"2026-07-20T22:27:34.499808","CLASSIFICATION_TYPE":"U","MEAN_MOTION":13.39553143,"ECCENTRICITY":0.00181282,"INCLINATION":86.5052,"RA_OF_ASC_NODE":353.1011,"ARG_OF_PERICENTER":94.9547,"MEAN_ANOMALY":265.3666,"EPHEMERIS_TYPE":0,"NORAD_CAT_ID":57289,"ELEMENT_SET_NO":999,"REV_AT_EPOCH":14827,"BSTAR":0.000031563178,"MEAN_MOTION_DOT":3.3e-7,"MEAN_MOTION_DDOT":0},{"OBJECT_NAME":"HULIANWANG JISHU SHIYAN 4A","OBJECT_ID":"2023-212A","EPOCH":"2026-07-20T21:36:27.782784","CLASSIFICATION_TYPE":"U","MEAN_MOTION":13.41459342,"ECCENTRICITY":0.00012349,"INCLINATION":49.9982,"RA_OF_ASC_NODE":220.2276,"ARG_OF_PERICENTER":239.9967,"MEAN_ANOMALY":120.0788,"EPHEMERIS_TYPE":0,"NORAD_CAT_ID":58691,"ELEMENT_SET_NO":999,"REV_AT_EPOCH":12577,"BSTAR":0.000050892681,"MEAN_MOTION_DOT":-0.000001,"MEAN_MOTION_DDOT":0},{"OBJECT_NAME":"HULIANWANG JISHU SHIYAN 4B","OBJECT_ID":"2023-212B","EPOCH":"2026-07-20T21:26:47.456448","CLASSIFICATION_TYPE":"U","MEAN_MOTION":13.41460439,"ECCENTRICITY":0.00013845,"INCLINATION":49.9951,"RA_OF_ASC_NODE":220.6083,"ARG_OF_PERICENTER":228.8262,"MEAN_ANOMALY":131.2496,"EPHEMERIS_TYPE":0,"NORAD_CAT_ID":58692,"ELEMENT_SET_NO":999,"REV_AT_EPOCH":12577,"BSTAR":0.000042625712,"MEAN_MOTION_DOT":-0.00000104,"MEAN_MOTION_DDOT":0},{"OBJECT_NAME":"HULIANWANG JISHU SHIYAN 4C","OBJECT_ID":"2023-212C","EPOCH":"2026-07-20T21:31:27.223104","CLASSIFICATION_TYPE":"U","MEAN_MOTION":13.414623,"ECCENTRICITY":0.00012257,"INCLINATION":49.9965,"RA_OF_ASC_NODE":220.7239,"ARG_OF_PERICENTER":218.4302,"MEAN_ANOMALY":141.6488,"EPHEMERIS_TYPE":0,"NORAD_CAT_ID":58693,"ELEMENT_SET_NO":999,"REV_AT_EPOCH":12578,"BSTAR":0.000045686762,"MEAN_MOTION_DOT":-0.00000103,"MEAN_MOTION_DDOT":0},{"OBJECT_NAME":"HULIANWANG DIGUI-01","OBJECT_ID":"2024-240A","EPOCH":"2026-07-20T22:04:02.738496","CLASSIFICATION_TYPE":"U","MEAN_MOTION":13.2441169,"ECCENTRICITY":0.00020261,"INCLINATION":86.5025,"RA_OF_ASC_NODE":331.8585,"ARG_OF_PERICENTER":104.6175,"MEAN_ANOMALY":255.5184,"EPHEMERIS_TYPE":0,"NORAD_CAT_ID":62323,"ELEMENT_SET_NO":999,"REV_AT_EPOCH":7710,"BSTAR":0.00010104144,"MEAN_MOTION_DOT":5.8e-7,"MEAN_MOTION_DDOT":0},{"OBJECT_NAME":"HULIANWANG DIGUI-02","OBJECT_ID":"2024-240B","EPOCH":"2026-07-20T22:14:47.371488","CLASSIFICATION_TYPE":"U","MEAN_MOTION":13.24411613,"ECCENTRICITY":0.00019983,"INCLINATION":86.5054,"RA_OF_ASC_NODE":332.0247,"ARG_OF_PERICENTER":104.9567,"MEAN_ANOMALY":255.1789,"EPHEMERIS_TYPE":0,"NORAD_CAT_ID":62324,"ELEMENT_SET_NO":999,"REV_AT_EPOCH":7711,"BSTAR":0.00010472215,"MEAN_MOTION_DOT":6e-7,"MEAN_MOTION_DDOT":0},{"OBJECT_NAME":"HULIANWANG DIGUI-03","OBJECT_ID":"2024-240C","EPOCH":"2026-07-20T21:53:08.802816","CLASSIFICATION_TYPE":"U","MEAN_MOTION":13.24410224,"ECCENTRICITY":0.00020533,"INCLINATION":86.5007,"RA_OF_ASC_NODE":331.7575,"ARG_OF_PERICENTER":102.8331,"MEAN_ANOMALY":257.3033,"EPHEMERIS_TYPE":0,"NORAD_CAT_ID":62325,"ELEMENT_SET_NO":999,"REV_AT_EPOCH":7710,"BSTAR":0.000062326729,"MEAN_MOTION_DOT":4.1e-7,"MEAN_MOTION_DDOT":0},{"OBJECT_NAME":"HULIANWANG DIGUI-04","OBJECT_ID":"2024-240D","EPOCH":"2026-07-20T21:42:17.475552","CLASSIFICATION_TYPE":"U","MEAN_MOTION":13.24410504,"ECCENTRICITY":0.00021738,"INCLINATION":86.5017,"RA_OF_ASC_NODE":331.804,"ARG_OF_PERICENTER":102.0261,"MEAN_ANOMALY":258.1117,"EPHEMERIS_TYPE":0,"NORAD_CAT_ID":62326,"ELEMENT_SET_NO":999,"REV_AT_EPOCH":7710,"BSTAR":0.000030745894,"MEAN_MOTION_DOT":2.8e-7,"MEAN_MOTION_DDOT":0},{"OBJECT_NAME":"HULIANWANG DIGUI-05","OBJECT_ID":"2024-240E","EPOCH":"2026-07-20T21:31:24.685536","CLASSIFICATION_TYPE":"U","MEAN_MOTION":13.24411198,"ECCENTRICITY":0.00021945,"INCLINATION":86.5069,"RA_OF_ASC_NODE":332.0952,"ARG_OF_PERICENTER":99.6075,"MEAN_ANOMALY":260.5307,"EPHEMERIS_TYPE":0,"NORAD_CAT_ID":62327,"ELEMENT_SET_NO":999,"REV_AT_EPOCH":7710,"BSTAR":0.000019727584,"MEAN_MOTION_DOT":2.3e-7,"MEAN_MOTION_DDOT":0},{"OBJECT_NAME":"HULIANWANG DIGUI-06","OBJECT_ID":"2024-240F","EPOCH":"2026-07-20T22:58:27.530976","CLASSIFICATION_TYPE":"U","MEAN_MOTION":13.24408678,"ECCENTRICITY":0.00021808,"INCLINATION":86.5007,"RA_OF_ASC_NODE":331.711,"ARG_OF_PERICENTER":106.154,"MEAN_ANOMALY":253.9834,"EPHEMERIS_TYPE":0,"NORAD_CAT_ID":62328,"ELEMENT_SET_NO":999,"REV_AT_EPOCH":7711,"BSTAR":-0.000009686934,"MEAN_MOTION_DOT":1e-7,"MEAN_MOTION_DDOT":0},{"OBJECT_NAME":"HULIANWANG DIGUI-07","OBJECT_ID":"2024-240G","EPOCH":"2026-07-20T22:47:32.645760","CLASSIFICATION_TYPE":"U","MEAN_MOTION":13.24411162,"ECCENTRICITY":0.00020749,"INCLINATION":86.4977,"RA_OF_ASC_NODE":331.5426,"ARG_OF_PERICENTER":104.2271,"MEAN_ANOMALY":255.9094,"EPHEMERIS_TYPE":0,"NORAD_CAT_ID":62329,"ELEMENT_SET_NO":999,"REV_AT_EPOCH":7711,"BSTAR":0.000018656257,"MEAN_MOTION_DOT":2.3e-7,"MEAN_MOTION_DDOT":0},{"OBJECT_NAME":"HULIANWANG DIGUI-08","OBJECT_ID":"2024-240H","EPOCH":"2026-07-20T21:20:31.651872","CLASSIFICATION_TYPE":"U","MEAN_MOTION":13.24411509,"ECCENTRICITY":0.00022683,"INCLINATION":86.506,"RA_OF_ASC_NODE":332.0439,"ARG_OF_PERICENTER":99.2632,"MEAN_ANOMALY":260.8758,"EPHEMERIS_TYPE":0,"NORAD_CAT_ID":62330,"ELEMENT_SET_NO":999,"REV_AT_EPOCH":7710,"BSTAR":0.000010187166,"MEAN_MOTION_DOT":1.9e-7,"MEAN_MOTION_DDOT":0},{"OBJECT_NAME":"HULIANWANG DIGUI-09","OBJECT_ID":"2024-240J","EPOCH":"2026-07-20T22:36:40.559904","CLASSIFICATION_TYPE":"U","MEAN_MOTION":13.2441011,"ECCENTRICITY":0.00020324,"INCLINATION":86.5027,"RA_OF_ASC_NODE":331.876,"ARG_OF_PERICENTER":103.0883,"MEAN_ANOMALY":257.0478,"EPHEMERIS_TYPE":0,"NORAD_CAT_ID":62331,"ELEMENT_SET_NO":999,"REV_AT_EPOCH":7710,"BSTAR":0.0000475189,"MEAN_MOTION_DOT":3.5e-7,"MEAN_MOTION_DDOT":0},{"OBJECT_NAME":"HULIANWANG DIGUI-10","OBJECT_ID":"2024-240K","EPOCH":"2026-07-20T22:25:47.926272","CLASSIFICATION_TYPE":"U","MEAN_MOTION":13.24410927,"ECCENTRICITY":0.0002133,"INCLINATION":86.5057,"RA_OF_ASC_NODE":332.0413,"ARG_OF_PERICENTER":105.0303,"MEAN_ANOMALY":255.1067,"EPHEMERIS_TYPE":0,"NORAD_CAT_ID":62332,"ELEMENT_SET_NO":999,"REV_AT_EPOCH":7710,"BSTAR":0.000087968335,"MEAN_MOTION_DOT":5.2e-7,"MEAN_MOTION_DDOT":0},{"OBJECT_NAME":"HULIANWANG DIGUI-11","OBJECT_ID":"2025-030A","EPOCH":"2026-07-20T21:58:46.783200","CLASSIFICATION_TYPE":"U","MEAN_MOTION":13.29324664,"ECCENTRICITY":0.00009076,"INCLINATION":50.0006,"RA_OF_ASC_NODE":114.8453,"ARG_OF_PERICENTER":290.6197,"MEAN_ANOMALY":69.4578,"EPHEMERIS_TYPE":0,"NORAD_CAT_ID":62971,"ELEMENT_SET_NO":999,"REV_AT_EPOCH":7034,"BSTAR":0.000047344858,"MEAN_MOTION_DOT":-0.00000102,"MEAN_MOTION_DDOT":0}]}
