HULIANWANG JISHU SHIYAN*
1 57288U 23095A   26201.94435779  .00000042  00000+0  48183-4 0  9991
2 57288  86.5050 353.0888 0019552  96.7714 263.5654 13.39544544148272
HULIANWANG JISHU SHIYAN*
1 57289U 23095B   26201.93581597  .00000033  00000+0  31563-4 0  9995
2 57289  86.5052 353.1011 0018128  94.9547 265.3666 13.39553143148274
HULIANWANG JISHU SHIYAN*
1 58691U 23212A   26201.90032156 -.00000100  00000+0  50893-4 0  9996
2 58691  49.9982 220.2276 0001234 239.9967 120.0788 13.41459342125772
HULIANWANG JISHU SHIYAN*
1 58692U 23212B   26201.89360482 -.00000104  00000+0  42626-4 0  9990
2 58692  49.9951 220.6083 0001384 228.8262 131.2496 13.41460439125779
HULIANWANG JISHU SHIYAN*
1 58693U 23212C   26201.89684286 -.00000103  00000+0  45687-4 0  9991
2 58693  49.9965 220.7239 0001225 218.4302 141.6488 13.41462300125789
HULIANWANG DIGUI-01     
1 62323U 24240A   26201.91947614  .00000058  00000+0  10104-3 0  9991
2 62323  86.5025 331.8585 0002026 104.6175 255.5184 13.24411690 77107
HULIANWANG DIGUI-02     
1 62324U 24240B   26201.92693717  .00000060  00000+0  10472-3 0  9996
2 62324  86.5054 332.0247 0001998 104.9567 255.1789 13.24411613 77116
HULIANWANG DIGUI-03     
1 62325U 24240C   26201.91190744  .00000041  00000+0  62327-4 0  9994
2 62325  86.5007 331.7575 0002053 102.8331 257.3033 13.24410224 77106
HULIANWANG DIGUI-04     
1 62326U 24240D   26201.90436893  .00000028  00000+0  30746-4 0  9997
2 62326  86.5017 331.8040 0002173 102.0261 258.1117 13.24410504 77106
HULIANWANG DIGUI-05     
1 62327U 24240E   26201.89681349  .00000023  00000+0  19728-4 0  9996
2 62327  86.5069 332.0952 0002194  99.6075 260.5307 13.24411198 77104
HULIANWANG DIGUI-06     
1 62328U 24240F   26201.95726309  .00000010  00000+0 -96869-5 0  9999
2 62328  86.5007 331.7110 0002180 106.1540 253.9834 13.24408678 77116
HULIANWANG DIGUI-07     
1 62329U 24240G   26201.94968340  .00000023  00000+0  18656-4 0  9992
2 62329  86.4977 331.5426 0002074 104.2271 255.9094 13.24411162 77114
HULIANWANG DIGUI-08     
1 62330U 24240H   26201.88925523  .00000019  00000+0  10187-4 0  9999
2 62330  86.5060 332.0439 0002268  99.2632 260.8758 13.24411509 77105
HULIANWANG DIGUI-09     
1 62331U 24240J   26201.94213611  .00000035  00000+0  47519-4 0  9992
2 62331  86.5027 331.8760 0002032 103.0883 257.0478 13.24410110 77108
HULIANWANG DIGUI-10     
1 62332U 24240K   26201.93458248  .00000052  00000+0  87968-4 0  9990
2 62332  86.5057 332.0413 0002133 105.0303 255.1067 13.24410927 77100
HULIANWANG DIGUI-11     
1 62971U 25030A   26201.91581925 -.00000102  00000+0  47345-4 0  9996
2 62971  50.0006 114.8453 0000907 290.6197  69.4578 13.29324664 70347
